CCSDS_OMM_VERS = 2.0
CREATION_DATE  = 
ORIGINATOR     = 

OBJECT_NAME    = DUPLEX
OBJECT_ID      = 1998-067XS
CENTER_NAME    = EARTH
REF_FRAME      = TEME
TIME_SYSTEM    = UTC
MEAN_ELEMENT_THEORY = SGP/SGP4

EPOCH          = 2026-01-16T01:25:00.430464
MEAN_MOTION    = 15.52518513
ECCENTRICITY   = .00022571
INCLINATION    = 51.6323
RA_OF_ASC_NODE = 331.9628
ARG_OF_PERICENTER = 18.8611
MEAN_ANOMALY   = 341.2462

EPHEMERIS_TYPE = 0
CLASSIFICATION_TYPE = U
NORAD_CAT_ID   = 66906
ELEMENT_SET_NO = 999
REV_AT_EPOCH   = 694
BSTAR          = .31582442E-3
MEAN_MOTION_DOT = .19299E-3
MEAN_MOTION_DDOT = 0

CCSDS_OMM_VERS = 2.0
CREATION_DATE  = 
ORIGINATOR     = 

OBJECT_NAME    = 1998-067XT
OBJECT_ID      = 1998-067XT
CENTER_NAME    = EARTH
REF_FRAME      = TEME
TIME_SYSTEM    = UTC
MEAN_ELEMENT_THEORY = SGP/SGP4

EPOCH          = 2026-01-16T13:59:09.697632
MEAN_MOTION    = 15.56548970
ECCENTRICITY   = .00036349
INCLINATION    = 51.6307
RA_OF_ASC_NODE = 328.7111
ARG_OF_PERICENTER = 69.7013
MEAN_ANOMALY   = 290.4369

EPHEMERIS_TYPE = 0
CLASSIFICATION_TYPE = U
NORAD_CAT_ID   = 66907
ELEMENT_SET_NO = 999
REV_AT_EPOCH   = 703
BSTAR          = .91387315E-3
MEAN_MOTION_DOT = .66206E-3
MEAN_MOTION_DDOT = 0

CCSDS_OMM_VERS = 2.0
CREATION_DATE  = 
ORIGINATOR     = 

OBJECT_NAME    = 1998-067XU
OBJECT_ID      = 1998-067XU
CENTER_NAME    = EARTH
REF_FRAME      = TEME
TIME_SYSTEM    = UTC
MEAN_ELEMENT_THEORY = SGP/SGP4

EPOCH          = 2026-01-16T13:57:55.559520
MEAN_MOTION    = 15.56485324
ECCENTRICITY   = .00035074
INCLINATION    = 51.6314
RA_OF_ASC_NODE = 328.7027
ARG_OF_PERICENTER = 64.7456
MEAN_ANOMALY   = 295.3898

EPHEMERIS_TYPE = 0
CLASSIFICATION_TYPE = U
NORAD_CAT_ID   = 66908
ELEMENT_SET_NO = 999
REV_AT_EPOCH   = 703
BSTAR          = .78535791E-3
MEAN_MOTION_DOT = .56622E-3
MEAN_MOTION_DDOT = 0

CCSDS_OMM_VERS = 2.0
CREATION_DATE  = 
ORIGINATOR     = 

OBJECT_NAME    = SILVERSAT
OBJECT_ID      = 1998-067XV
CENTER_NAME    = EARTH
REF_FRAME      = TEME
TIME_SYSTEM    = UTC
MEAN_ELEMENT_THEORY = SGP/SGP4

EPOCH          = 2026-01-16T06:02:24.739872
MEAN_MOTION    = 15.57210721
ECCENTRICITY   = .00038126
INCLINATION    = 51.6315
RA_OF_ASC_NODE = 330.2483
ARG_OF_PERICENTER = 73.9906
MEAN_ANOMALY   = 286.1506

EPHEMERIS_TYPE = 0
CLASSIFICATION_TYPE = U
NORAD_CAT_ID   = 66909
ELEMENT_SET_NO = 999
REV_AT_EPOCH   = 698
BSTAR          = .90515861E-3
MEAN_MOTION_DOT = .67226E-3
MEAN_MOTION_DDOT = 0

CCSDS_OMM_VERS = 2.0
CREATION_DATE  = 
ORIGINATOR     = 

OBJECT_NAME    = 1998-067XW
OBJECT_ID      = 1998-067XW
CENTER_NAME    = EARTH
REF_FRAME      = TEME
TIME_SYSTEM    = UTC
MEAN_ELEMENT_THEORY = SGP/SGP4

EPOCH          = 2026-01-16T06:05:05.919936
MEAN_MOTION    = 15.56802316
ECCENTRICITY   = .00025669
INCLINATION    = 51.6297
RA_OF_ASC_NODE = 330.2591
ARG_OF_PERICENTER = 48.4217
MEAN_ANOMALY   = 311.6994

EPHEMERIS_TYPE = 0
CLASSIFICATION_TYPE = U
NORAD_CAT_ID   = 66910
ELEMENT_SET_NO = 999
REV_AT_EPOCH   = 698
BSTAR          = .79940034E-3
MEAN_MOTION_DOT = .58338E-3
MEAN_MOTION_DDOT = 0

CCSDS_OMM_VERS = 2.0
CREATION_DATE  = 
ORIGINATOR     = 

OBJECT_NAME    = 1998-067XX
OBJECT_ID      = 1998-067XX
CENTER_NAME    = EARTH
REF_FRAME      = TEME
TIME_SYSTEM    = UTC
MEAN_ELEMENT_THEORY = SGP/SGP4

EPOCH          = 2026-01-16T13:23:27.822624
MEAN_MOTION    = 15.58063585
ECCENTRICITY   = .00026016
INCLINATION    = 51.6292
RA_OF_ASC_NODE = 328.5436
ARG_OF_PERICENTER = 72.8176
MEAN_ANOMALY   = 287.3101

EPHEMERIS_TYPE = 0
CLASSIFICATION_TYPE = U
NORAD_CAT_ID   = 66911
ELEMENT_SET_NO = 999
REV_AT_EPOCH   = 702
BSTAR          = .11064031E-2
MEAN_MOTION_DOT = .85148E-3
MEAN_MOTION_DDOT = 0

CCSDS_OMM_VERS = 2.0
CREATION_DATE  = 
ORIGINATOR     = 

OBJECT_NAME    = 1998-067XY
OBJECT_ID      = 1998-067XY
CENTER_NAME    = EARTH
REF_FRAME      = TEME
TIME_SYSTEM    = UTC
MEAN_ELEMENT_THEORY = SGP/SGP4

EPOCH          = 2026-01-16T06:45:46.004544
MEAN_MOTION    = 15.55032427
ECCENTRICITY   = .00033844
INCLINATION    = 51.6311
RA_OF_ASC_NODE = 330.4500
ARG_OF_PERICENTER = 49.8415
MEAN_ANOMALY   = 310.2872

EPHEMERIS_TYPE = 0
CLASSIFICATION_TYPE = U
NORAD_CAT_ID   = 66912
ELEMENT_SET_NO = 999
REV_AT_EPOCH   = 697
BSTAR          = .6747417E-3
MEAN_MOTION_DOT = .45958E-3
MEAN_MOTION_DDOT = 0

